[{"OBJECT_NAME":"UHETSAT","OBJECT_ID":"2023-185E","EPOCH":"2026-03-09T22:39:26.455680","MEAN_MOTION":15.29797662,"ECCENTRICITY":0.00118435,"INCLINATION":97.3584,"RA_OF_ASC_NODE":137.3576,"ARG_OF_PERICENTER":307.7346,"MEAN_ANOMALY":52.2821,"EPHEMERIS_TYPE":0,"CLASSIFICATION_TYPE":"U","NORAD_CAT_ID":58466,"ELEMENT_SET_NO":999,"REV_AT_EPOCH":12611,"BSTAR":0.00030513019,"MEAN_MOTION_DOT":8.749e-5,"MEAN_MOTION_DDOT":0},{"OBJECT_NAME":"STARLINK-35815","OBJECT_ID":"2025-268W","EPOCH":"2026-03-08T03:31:45.128640","MEAN_MOTION":15.27625122,"ECCENTRICITY":0.00012658,"INCLINATION":42.9995,"RA_OF_ASC_NODE":355.788,"ARG_OF_PERICENTER":285.0834,"MEAN_ANOMALY":74.9878,"EPHEMERIS_TYPE":0,"CLASSIFICATION_TYPE":"U","NORAD_CAT_ID":66577,"ELEMENT_SET_NO":999,"REV_AT_EPOCH":1772,"BSTAR":0.0018510755,"MEAN_MOTION_DOT":0.000511,"MEAN_MOTION_DDOT":0}]
